{
 "type": "FeatureCollection",
 "features": [
  {
   "type": "Feature",
   "properties": {
    "name": "Набережная Актау · 1 мкр",
    "type": "embankment",
    "hours": "круглосуточно",
    "is_verified": true
   },
   "geometry": {
    "type": "Point",
    "coordinates": [
     51.165,
     43.6355
    ]
   }
  },
  {
   "type": "Feature",
   "properties": {
    "name": "Набережная у маяка · 5 мкр",
    "type": "embankment",
    "hours": "круглосуточно",
    "is_verified": true
   },
   "geometry": {
    "type": "Point",
    "coordinates": [
     51.1465,
     43.6535
    ]
   }
  },
  {
   "type": "Feature",
   "properties": {
    "name": "Прибрежная тропа · 3 мкр",
    "type": "embankment",
    "hours": "круглосуточно",
    "is_verified": true
   },
   "geometry": {
    "type": "Point",
    "coordinates": [
     51.1525,
     43.6475
    ]
   }
  },
  {
   "type": "Feature",
   "properties": {
    "name": "Набережная · 2 мкр",
    "type": "embankment",
    "hours": "круглосуточно",
    "is_verified": false
   },
   "geometry": {
    "type": "Point",
    "coordinates": [
     51.157,
     43.641
    ]
   }
  },
  {
   "type": "Feature",
   "properties": {
    "name": "Прибрежная зона · 7 мкр",
    "type": "embankment",
    "hours": "круглосуточно",
    "is_verified": false
   },
   "geometry": {
    "type": "Point",
    "coordinates": [
     51.1445,
     43.66
    ]
   }
  },
  {
   "type": "Feature",
   "properties": {
    "name": "Прибрежная зона · 9 мкр (северная)",
    "type": "embankment",
    "hours": "круглосуточно",
    "is_verified": false
   },
   "geometry": {
    "type": "Point",
    "coordinates": [
     51.144,
     43.668
    ]
   }
  },
  {
   "type": "Feature",
   "properties": {
    "name": "Сквер у памятника Т. Шевченко",
    "type": "park",
    "hours": "круглосуточно",
    "is_verified": true
   },
   "geometry": {
    "type": "Point",
    "coordinates": [
     51.1555,
     43.6495
    ]
   }
  },
  {
   "type": "Feature",
   "properties": {
    "name": "Аллея у акимата области",
    "type": "park",
    "hours": "круглосуточно",
    "is_verified": true
   },
   "geometry": {
    "type": "Point",
    "coordinates": [
     51.16,
     43.652
    ]
   }
  },
  {
   "type": "Feature",
   "properties": {
    "name": "Парк Победы · Вечный огонь",
    "type": "park",
    "hours": "круглосуточно",
    "is_verified": true
   },
   "geometry": {
    "type": "Point",
    "coordinates": [
     51.1615,
     43.6455
    ]
   }
  },
  {
   "type": "Feature",
   "properties": {
    "name": "Бульвар 4 мкр",
    "type": "park",
    "hours": "круглосуточно",
    "is_verified": false
   },
   "geometry": {
    "type": "Point",
    "coordinates": [
     51.174,
     43.643
    ]
   }
  },
  {
   "type": "Feature",
   "properties": {
    "name": "Сквер 1 мкр",
    "type": "park",
    "hours": "круглосуточно",
    "is_verified": false
   },
   "geometry": {
    "type": "Point",
    "coordinates": [
     51.172,
     43.638
    ]
   }
  },
  {
   "type": "Feature",
   "properties": {
    "name": "Зелёная аллея 6 мкр",
    "type": "park",
    "hours": "круглосуточно",
    "is_verified": false
   },
   "geometry": {
    "type": "Point",
    "coordinates": [
     51.168,
     43.6495
    ]
   }
  },
  {
   "type": "Feature",
   "properties": {
    "name": "Зелёная аллея 8 мкр",
    "type": "park",
    "hours": "круглосуточно",
    "is_verified": false
   },
   "geometry": {
    "type": "Point",
    "coordinates": [
     51.16,
     43.657
    ]
   }
  },
  {
   "type": "Feature",
   "properties": {
    "name": "Сквер 11 мкр",
    "type": "park",
    "hours": "круглосуточно",
    "is_verified": false
   },
   "geometry": {
    "type": "Point",
    "coordinates": [
     51.173,
     43.663
    ]
   }
  },
  {
   "type": "Feature",
   "properties": {
    "name": "Аллея 12 мкр",
    "type": "park",
    "hours": "круглосуточно",
    "is_verified": false
   },
   "geometry": {
    "type": "Point",
    "coordinates": [
     51.166,
     43.671
    ]
   }
  },
  {
   "type": "Feature",
   "properties": {
    "name": "Аллея 14 мкр",
    "type": "park",
    "hours": "круглосуточно",
    "is_verified": false
   },
   "geometry": {
    "type": "Point",
    "coordinates": [
     51.158,
     43.675
    ]
   }
  },
  {
   "type": "Feature",
   "properties": {
    "name": "Сквер 27 мкр (молодые посадки)",
    "type": "park",
    "hours": "круглосуточно",
    "is_verified": false
   },
   "geometry": {
    "type": "Point",
    "coordinates": [
     51.193,
     43.669
    ]
   }
  },
  {
   "type": "Feature",
   "properties": {
    "name": "ТРЦ Aktau City Mall",
    "type": "mall",
    "hours": "10:00–22:00",
    "is_verified": true
   },
   "geometry": {
    "type": "Point",
    "coordinates": [
     51.164,
     43.6745
    ]
   }
  },
  {
   "type": "Feature",
   "properties": {
    "name": "Торговый центр · 4 мкр",
    "type": "mall",
    "hours": "10:00–21:00",
    "is_verified": false
   },
   "geometry": {
    "type": "Point",
    "coordinates": [
     51.18,
     43.6445
    ]
   }
  },
  {
   "type": "Feature",
   "properties": {
    "name": "Торговый центр · 11 мкр",
    "type": "mall",
    "hours": "10:00–21:00",
    "is_verified": false
   },
   "geometry": {
    "type": "Point",
    "coordinates": [
     51.177,
     43.6655
    ]
   }
  },
  {
   "type": "Feature",
   "properties": {
    "name": "Торговый центр · 28 мкр",
    "type": "mall",
    "hours": "10:00–21:00",
    "is_verified": false
   },
   "geometry": {
    "type": "Point",
    "coordinates": [
     51.198,
     43.676
    ]
   }
  },
  {
   "type": "Feature",
   "properties": {
    "name": "Мангистауская областная библиотека",
    "type": "library",
    "hours": "09:00–18:00",
    "is_verified": false
   },
   "geometry": {
    "type": "Point",
    "coordinates": [
     51.164,
     43.649
    ]
   }
  },
  {
   "type": "Feature",
   "properties": {
    "name": "Детская библиотека · 12 мкр",
    "type": "library",
    "hours": "09:00–18:00",
    "is_verified": false
   },
   "geometry": {
    "type": "Point",
    "coordinates": [
     51.17,
     43.6695
    ]
   }
  },
  {
   "type": "Feature",
   "properties": {
    "name": "Остановка с кондиционером · 2 мкр",
    "type": "ac_bus_stop",
    "hours": "06:00–23:00",
    "is_verified": false
   },
   "geometry": {
    "type": "Point",
    "coordinates": [
     51.164,
     43.643
    ]
   }
  },
  {
   "type": "Feature",
   "properties": {
    "name": "Остановка с кондиционером · 3 мкр",
    "type": "ac_bus_stop",
    "hours": "06:00–23:00",
    "is_verified": false
   },
   "geometry": {
    "type": "Point",
    "coordinates": [
     51.159,
     43.647
    ]
   }
  },
  {
   "type": "Feature",
   "properties": {
    "name": "Остановка с кондиционером · 5 мкр",
    "type": "ac_bus_stop",
    "hours": "06:00–23:00",
    "is_verified": false
   },
   "geometry": {
    "type": "Point",
    "coordinates": [
     51.153,
     43.6545
    ]
   }
  },
  {
   "type": "Feature",
   "properties": {
    "name": "Остановка с кондиционером · 6 мкр",
    "type": "ac_bus_stop",
    "hours": "06:00–23:00",
    "is_verified": false
   },
   "geometry": {
    "type": "Point",
    "coordinates": [
     51.173,
     43.6505
    ]
   }
  },
  {
   "type": "Feature",
   "properties": {
    "name": "Остановка с кондиционером · 8 мкр",
    "type": "ac_bus_stop",
    "hours": "06:00–23:00",
    "is_verified": false
   },
   "geometry": {
    "type": "Point",
    "coordinates": [
     51.1655,
     43.6585
    ]
   }
  },
  {
   "type": "Feature",
   "properties": {
    "name": "Остановка с кондиционером · 9 мкр",
    "type": "ac_bus_stop",
    "hours": "06:00–23:00",
    "is_verified": false
   },
   "geometry": {
    "type": "Point",
    "coordinates": [
     51.161,
     43.6655
    ]
   }
  },
  {
   "type": "Feature",
   "properties": {
    "name": "Остановка с кондиционером · 12 мкр",
    "type": "ac_bus_stop",
    "hours": "06:00–23:00",
    "is_verified": false
   },
   "geometry": {
    "type": "Point",
    "coordinates": [
     51.171,
     43.6705
    ]
   }
  },
  {
   "type": "Feature",
   "properties": {
    "name": "Остановка с кондиционером · 14 мкр",
    "type": "ac_bus_stop",
    "hours": "06:00–23:00",
    "is_verified": false
   },
   "geometry": {
    "type": "Point",
    "coordinates": [
     51.163,
     43.6735
    ]
   }
  },
  {
   "type": "Feature",
   "properties": {
    "name": "Остановка с кондиционером · 27 мкр",
    "type": "ac_bus_stop",
    "hours": "06:00–23:00",
    "is_verified": false
   },
   "geometry": {
    "type": "Point",
    "coordinates": [
     51.192,
     43.6675
    ]
   }
  },
  {
   "type": "Feature",
   "properties": {
    "name": "Остановка с кондиционером · 29 мкр",
    "type": "ac_bus_stop",
    "hours": "06:00–23:00",
    "is_verified": false
   },
   "geometry": {
    "type": "Point",
    "coordinates": [
     51.202,
     43.661
    ]
   }
  },
  {
   "type": "Feature",
   "properties": {
    "name": "Фонтанчик · набережная 1 мкр",
    "type": "fountain",
    "hours": "май–октябрь",
    "is_verified": false
   },
   "geometry": {
    "type": "Point",
    "coordinates": [
     51.164,
     43.637
    ]
   }
  },
  {
   "type": "Feature",
   "properties": {
    "name": "Фонтанчик · сквер Шевченко",
    "type": "fountain",
    "hours": "май–октябрь",
    "is_verified": false
   },
   "geometry": {
    "type": "Point",
    "coordinates": [
     51.155,
     43.649
    ]
   }
  },
  {
   "type": "Feature",
   "properties": {
    "name": "Фонтанчик · парк Победы",
    "type": "fountain",
    "hours": "май–октябрь",
    "is_verified": false
   },
   "geometry": {
    "type": "Point",
    "coordinates": [
     51.162,
     43.646
    ]
   }
  },
  {
   "type": "Feature",
   "properties": {
    "name": "Фонтанчик · бульвар 4 мкр",
    "type": "fountain",
    "hours": "май–октябрь",
    "is_verified": false
   },
   "geometry": {
    "type": "Point",
    "coordinates": [
     51.176,
     43.644
    ]
   }
  },
  {
   "type": "Feature",
   "properties": {
    "name": "Фонтанчик · набережная 5 мкр",
    "type": "fountain",
    "hours": "май–октябрь",
    "is_verified": false
   },
   "geometry": {
    "type": "Point",
    "coordinates": [
     51.1475,
     43.654
    ]
   }
  },
  {
   "type": "Feature",
   "properties": {
    "name": "Фонтанчик · 7 мкр",
    "type": "fountain",
    "hours": "май–октябрь",
    "is_verified": false
   },
   "geometry": {
    "type": "Point",
    "coordinates": [
     51.149,
     43.6605
    ]
   }
  },
  {
   "type": "Feature",
   "properties": {
    "name": "Фонтанчик · аллея 8 мкр",
    "type": "fountain",
    "hours": "май–октябрь",
    "is_verified": false
   },
   "geometry": {
    "type": "Point",
    "coordinates": [
     51.161,
     43.6575
    ]
   }
  },
  {
   "type": "Feature",
   "properties": {
    "name": "Фонтанчик · сквер 11 мкр",
    "type": "fountain",
    "hours": "май–октябрь",
    "is_verified": false
   },
   "geometry": {
    "type": "Point",
    "coordinates": [
     51.174,
     43.6635
    ]
   }
  },
  {
   "type": "Feature",
   "properties": {
    "name": "Аптека · 3 мкр",
    "type": "pharmacy",
    "hours": "08:00–22:00",
    "is_verified": false
   },
   "geometry": {
    "type": "Point",
    "coordinates": [
     51.158,
     43.6485
    ]
   }
  },
  {
   "type": "Feature",
   "properties": {
    "name": "Аптека · 6 мкр",
    "type": "pharmacy",
    "hours": "08:00–22:00",
    "is_verified": false
   },
   "geometry": {
    "type": "Point",
    "coordinates": [
     51.171,
     43.651
    ]
   }
  },
  {
   "type": "Feature",
   "properties": {
    "name": "Аптека · 9 мкр",
    "type": "pharmacy",
    "hours": "08:00–22:00",
    "is_verified": false
   },
   "geometry": {
    "type": "Point",
    "coordinates": [
     51.16,
     43.6655
    ]
   }
  },
  {
   "type": "Feature",
   "properties": {
    "name": "Аптека · 11 мкр",
    "type": "pharmacy",
    "hours": "круглосуточно",
    "is_verified": false
   },
   "geometry": {
    "type": "Point",
    "coordinates": [
     51.177,
     43.6645
    ]
   }
  },
  {
   "type": "Feature",
   "properties": {
    "name": "Аптека · 14 мкр",
    "type": "pharmacy",
    "hours": "08:00–22:00",
    "is_verified": false
   },
   "geometry": {
    "type": "Point",
    "coordinates": [
     51.162,
     43.6735
    ]
   }
  },
  {
   "type": "Feature",
   "properties": {
    "name": "Аптека · 27 мкр",
    "type": "pharmacy",
    "hours": "08:00–22:00",
    "is_verified": false
   },
   "geometry": {
    "type": "Point",
    "coordinates": [
     51.196,
     43.6685
    ]
   }
  },
  {
   "type": "Feature",
   "properties": {
    "name": "Аптека · 28 мкр",
    "type": "pharmacy",
    "hours": "08:00–22:00",
    "is_verified": false
   },
   "geometry": {
    "type": "Point",
    "coordinates": [
     51.1985,
     43.6755
    ]
   }
  },
  {
   "type": "Feature",
   "properties": {
    "name": "Аптека · 29 мкр",
    "type": "pharmacy",
    "hours": "круглосуточно",
    "is_verified": false
   },
   "geometry": {
    "type": "Point",
    "coordinates": [
     51.206,
     43.6595
    ]
   }
  }
 ]
}