{
 "type": "FeatureCollection",
 "features": [
  {
   "type": "Feature",
   "properties": {
    "name": "1 мкр",
    "green_ratio": 0.3,
    "heat_index_base": 0.45,
    "population": null
   },
   "geometry": {
    "type": "Polygon",
    "coordinates": [
     [
      [
       51.179312,
       43.6365
      ],
      [
       51.178603,
       43.633904
      ],
      [
       51.176585,
       43.631702
      ],
      [
       51.173564,
       43.630232
      ],
      [
       51.172925,
       43.630139
      ],
      [
       51.166,
       43.6325
      ],
      [
       51.160983,
       43.635949
      ],
      [
       51.170073,
       43.642383
      ],
      [
       51.179221,
       43.636832
      ],
      [
       51.179312,
       43.6365
      ]
     ]
    ]
   }
  },
  {
   "type": "Feature",
   "properties": {
    "name": "2 мкр",
    "green_ratio": 0.28,
    "heat_index_base": 0.48,
    "population": null
   },
   "geometry": {
    "type": "Polygon",
    "coordinates": [
     [
      [
       51.160983,
       43.635949
      ],
      [
       51.158,
       43.638
      ],
      [
       51.153084,
       43.641824
      ],
      [
       51.163334,
       43.64776
      ],
      [
       51.169876,
       43.644055
      ],
      [
       51.170073,
       43.642383
      ],
      [
       51.160983,
       43.635949
      ]
     ]
    ]
   }
  },
  {
   "type": "Feature",
   "properties": {
    "name": "3 мкр",
    "green_ratio": 0.32,
    "heat_index_base": 0.5,
    "population": null
   },
   "geometry": {
    "type": "Polygon",
    "coordinates": [
     [
      [
       51.153084,
       43.641824
      ],
      [
       51.149,
       43.645
      ],
      [
       51.146885,
       43.647277
      ],
      [
       51.146772,
       43.647693
      ],
      [
       51.157605,
       43.653444
      ],
      [
       51.162198,
       43.651981
      ],
      [
       51.163334,
       43.64776
      ],
      [
       51.153084,
       43.641824
      ]
     ]
    ]
   }
  },
  {
   "type": "Feature",
   "properties": {
    "name": "4 мкр",
    "green_ratio": 0.22,
    "heat_index_base": 0.6,
    "population": null
   },
   "geometry": {
    "type": "Polygon",
    "coordinates": [
     [
      [
       51.181564,
       43.649768
      ],
      [
       51.184585,
       43.648298
      ],
      [
       51.186603,
       43.646096
      ],
      [
       51.187312,
       43.6435
      ],
      [
       51.186603,
       43.640904
      ],
      [
       51.184585,
       43.638702
      ],
      [
       51.181564,
       43.637232
      ],
      [
       51.179141,
       43.636881
      ],
      [
       51.170073,
       43.642383
      ],
      [
       51.169876,
       43.644055
      ],
      [
       51.179154,
       43.650118
      ],
      [
       51.181564,
       43.649768
      ]
     ]
    ]
   }
  },
  {
   "type": "Feature",
   "properties": {
    "name": "5 мкр",
    "green_ratio": 0.25,
    "heat_index_base": 0.47,
    "population": null
   },
   "geometry": {
    "type": "Polygon",
    "coordinates": [
     [
      [
       51.146468,
       43.647727
      ],
      [
       51.1425,
       43.652
      ],
      [
       51.142061,
       43.655291
      ],
      [
       51.15439,
       43.658564
      ],
      [
       51.157605,
       43.653444
      ],
      [
       51.146772,
       43.647693
      ],
      [
       51.146756,
       43.647685
      ],
      [
       51.146468,
       43.647727
      ]
     ]
    ]
   }
  },
  {
   "type": "Feature",
   "properties": {
    "name": "6 мкр",
    "green_ratio": 0.2,
    "heat_index_base": 0.62,
    "population": null
   },
   "geometry": {
    "type": "Polygon",
    "coordinates": [
     [
      [
       51.162198,
       43.651981
      ],
      [
       51.170979,
       43.656643
      ],
      [
       51.173564,
       43.656268
      ],
      [
       51.176585,
       43.654798
      ],
      [
       51.178603,
       43.652596
      ],
      [
       51.179261,
       43.650187
      ],
      [
       51.179155,
       43.650118
      ],
      [
       51.179154,
       43.650118
      ],
      [
       51.169876,
       43.644055
      ],
      [
       51.163334,
       43.64776
      ],
      [
       51.162198,
       43.651981
      ]
     ]
    ]
   }
  },
  {
   "type": "Feature",
   "properties": {
    "name": "7 мкр",
    "green_ratio": 0.22,
    "heat_index_base": 0.5,
    "population": null
   },
   "geometry": {
    "type": "Polygon",
    "coordinates": [
     [
      [
       51.142061,
       43.655291
      ],
      [
       51.140771,
       43.664971
      ],
      [
       51.143436,
       43.666268
      ],
      [
       51.147,
       43.666785
      ],
      [
       51.149091,
       43.666482
      ],
      [
       51.154726,
       43.6599
      ],
      [
       51.15439,
       43.658564
      ],
      [
       51.142061,
       43.655291
      ]
     ]
    ]
   }
  },
  {
   "type": "Feature",
   "properties": {
    "name": "8 мкр",
    "green_ratio": 0.18,
    "heat_index_base": 0.63,
    "population": null
   },
   "geometry": {
    "type": "Polygon",
    "coordinates": [
     [
      [
       51.170935,
       43.65662
      ],
      [
       51.162198,
       43.651981
      ],
      [
       51.157605,
       43.653444
      ],
      [
       51.15439,
       43.658564
      ],
      [
       51.154726,
       43.6599
      ],
      [
       51.166382,
       43.663436
      ],
      [
       51.171263,
       43.657822
      ],
      [
       51.170935,
       43.65662
      ]
     ]
    ]
   }
  },
  {
   "type": "Feature",
   "properties": {
    "name": "9 мкр",
    "green_ratio": 0.17,
    "heat_index_base": 0.64,
    "population": null
   },
   "geometry": {
    "type": "Polygon",
    "coordinates": [
     [
      [
       51.166382,
       43.663436
      ],
      [
       51.154726,
       43.6599
      ],
      [
       51.149092,
       43.66648
      ],
      [
       51.149092,
       43.666481
      ],
      [
       51.149397,
       43.667596
      ],
      [
       51.151415,
       43.669798
      ],
      [
       51.152403,
       43.670278
      ],
      [
       51.161381,
       43.669219
      ],
      [
       51.166429,
       43.663859
      ],
      [
       51.166382,
       43.663436
      ]
     ]
    ]
   }
  },
  {
   "type": "Feature",
   "properties": {
    "name": "11 мкр",
    "green_ratio": 0.14,
    "heat_index_base": 0.7,
    "population": null
   },
   "geometry": {
    "type": "Polygon",
    "coordinates": [
     [
      [
       51.181585,
       43.668798
      ],
      [
       51.183603,
       43.666596
      ],
      [
       51.184312,
       43.664
      ],
      [
       51.183603,
       43.661404
      ],
      [
       51.181585,
       43.659202
      ],
      [
       51.178564,
       43.657732
      ],
      [
       51.175,
       43.657215
      ],
      [
       51.171436,
       43.657732
      ],
      [
       51.171272,
       43.657812
      ],
      [
       51.171263,
       43.657822
      ],
      [
       51.166382,
       43.663436
      ],
      [
       51.166429,
       43.663859
      ],
      [
       51.177116,
       43.670478
      ],
      [
       51.178564,
       43.670268
      ],
      [
       51.181585,
       43.668798
      ]
     ]
    ]
   }
  },
  {
   "type": "Feature",
   "properties": {
    "name": "12 мкр",
    "green_ratio": 0.13,
    "heat_index_base": 0.72,
    "population": null
   },
   "geometry": {
    "type": "Polygon",
    "coordinates": [
     [
      [
       51.174585,
       43.674798
      ],
      [
       51.176603,
       43.672596
      ],
      [
       51.177172,
       43.670513
      ],
      [
       51.177116,
       43.670478
      ],
      [
       51.166429,
       43.663859
      ],
      [
       51.161381,
       43.669219
      ],
      [
       51.168446,
       43.67672
      ],
      [
       51.171564,
       43.676268
      ],
      [
       51.174585,
       43.674798
      ]
     ]
    ]
   }
  },
  {
   "type": "Feature",
   "properties": {
    "name": "14 мкр",
    "green_ratio": 0.15,
    "heat_index_base": 0.7,
    "population": null
   },
   "geometry": {
    "type": "Polygon",
    "coordinates": [
     [
      [
       51.151397,
       43.671404
      ],
      [
       51.150688,
       43.674
      ],
      [
       51.151397,
       43.676596
      ],
      [
       51.153415,
       43.678798
      ],
      [
       51.156436,
       43.680268
      ],
      [
       51.16,
       43.680785
      ],
      [
       51.163564,
       43.680268
      ],
      [
       51.166585,
       43.678798
      ],
      [
       51.168468,
       43.676744
      ],
      [
       51.168446,
       43.67672
      ],
      [
       51.161381,
       43.669219
      ],
      [
       51.152432,
       43.670275
      ],
      [
       51.151397,
       43.671404
      ]
     ]
    ]
   }
  },
  {
   "type": "Feature",
   "properties": {
    "name": "27 мкр",
    "green_ratio": 0.06,
    "heat_index_base": 0.86,
    "population": null
   },
   "geometry": {
    "type": "Polygon",
    "coordinates": [
     [
      [
       51.203932,
       43.66661
      ],
      [
       51.196028,
       43.661364
      ],
      [
       51.195,
       43.661215
      ],
      [
       51.191436,
       43.661732
      ],
      [
       51.188415,
       43.663202
      ],
      [
       51.186397,
       43.665404
      ],
      [
       51.185688,
       43.668
      ],
      [
       51.186397,
       43.670596
      ],
      [
       51.188415,
       43.672798
      ],
      [
       51.190895,
       43.674005
      ],
      [
       51.204033,
       43.669023
      ],
      [
       51.204312,
       43.668
      ],
      [
       51.203932,
       43.66661
      ]
     ]
    ]
   }
  },
  {
   "type": "Feature",
   "properties": {
    "name": "28 мкр",
    "green_ratio": 0.05,
    "heat_index_base": 0.88,
    "population": null
   },
   "geometry": {
    "type": "Polygon",
    "coordinates": [
     [
      [
       51.191397,
       43.677596
      ],
      [
       51.193415,
       43.679798
      ],
      [
       51.196436,
       43.681268
      ],
      [
       51.2,
       43.681785
      ],
      [
       51.203564,
       43.681268
      ],
      [
       51.206585,
       43.679798
      ],
      [
       51.208603,
       43.677596
      ],
      [
       51.209312,
       43.675
      ],
      [
       51.208603,
       43.672404
      ],
      [
       51.206585,
       43.670202
      ],
      [
       51.204105,
       43.668995
      ],
      [
       51.204033,
       43.669022
      ],
      [
       51.204033,
       43.669023
      ],
      [
       51.190967,
       43.673978
      ],
      [
       51.190688,
       43.675
      ],
      [
       51.191397,
       43.677596
      ]
     ]
    ]
   }
  },
  {
   "type": "Feature",
   "properties": {
    "name": "29 мкр",
    "green_ratio": 0.05,
    "heat_index_base": 0.9,
    "population": null
   },
   "geometry": {
    "type": "Polygon",
    "coordinates": [
     [
      [
       51.208564,
       43.666268
      ],
      [
       51.211585,
       43.664798
      ],
      [
       51.213603,
       43.662596
      ],
      [
       51.214312,
       43.66
      ],
      [
       51.213603,
       43.657404
      ],
      [
       51.211585,
       43.655202
      ],
      [
       51.208564,
       43.653732
      ],
      [
       51.205,
       43.653215
      ],
      [
       51.201436,
       43.653732
      ],
      [
       51.198415,
       43.655202
      ],
      [
       51.196397,
       43.657404
      ],
      [
       51.195688,
       43.66
      ],
      [
       51.196068,
       43.66139
      ],
      [
       51.203932,
       43.66661
      ],
      [
       51.203972,
       43.666636
      ],
      [
       51.205,
       43.666785
      ],
      [
       51.208564,
       43.666268
      ]
     ]
    ]
   }
  }
 ]
}